GEO-KOMPSAT-2B          
1 45246U 20013B   24174.19014090 -.00000327  00000+0  00000+0 0  9990
2 45246   0.0411 188.1727 0000026 291.4673 347.9278  1.00272082 15988
BEIDOU-3 G2             
1 45344U 20017A   24173.89425323 -.00000125  00000+0  00000+0 0  9990
2 45344   2.3207  29.8241 0001753 104.6556 178.0512  1.00270773 15989
AEHF-6 (USA 298)        
1 45465U 20022B   24173.83421978 -.00000276  00000+0  00000+0 0  9993
2 45465   4.2121 298.5378 0041386   7.9256  42.1480  1.00270774 15743
BEIDOU-3 G3             
1 45807U 20040A   24173.88443529 -.00000337  00000+0  00000+0 0  9992
2 45807   0.7844  42.9485 0004805 284.2960  12.2744  1.00268814 14790
APSTAR-6D               
1 45863U 20045A   24173.34285469 -.00000299  00000+0  00000+0 0  9994
2 45863   0.0259  73.8098 0003029  50.8134  42.8543  1.00267841 14587
KOREASAT 116            
1 45920U 20048A   24173.90147611 -.00000344  00000+0  00000+0 0  9990
2 45920   0.0151 351.4078 0001241 114.0987 245.8113  1.00270832 14366
EXPRESS 103             
1 45985U 20053A   24173.89756010 -.00000263  00000+0  00000+0 0  9994
2 45985   0.0236   9.1436 0000267 283.7229  37.3313  1.00269145 14378
EXPRESS 80              
1 45986U 20053B   24173.02869522 -.00000115  00000+0  00000+0 0  9999
2 45986   0.0238 334.9566 0001622  25.0850 359.9583  1.00272146 14363
BSAT-4B                 
1 46112U 20056A   24173.11285426 -.00000330  00000+0  00000+0 0  9998
2 46112   0.0920 111.6092 0004370   4.4897 304.1676  1.00270700 14103
MEV-2                   
1 46113U 20056B   24173.37718317  .00000009  00000+0  00000+0 0  9999
2 46113   0.0170 319.8726 0001156 117.0990 327.8926  1.00273375 73275
GALAXY 30 (G-30)        
1 46114U 20056C   24173.99664367  .00000054  00000+0  00000+0 0  9993
2 46114   0.0261  19.3214 0002463  68.8410  56.2887  1.00270839 14134
GAOFEN-13 01            
1 46610U 20071A   24174.15257920 -.00000346  00000+0  00000+0 0  9998
2 46610   0.6311  87.5806 0014402 278.2982  77.5767  1.00273407 13639
TIANTONG-1 2            
1 46916U 20082A   24174.04630424 -.00000335  00000+0  00000+0 0  9999
2 46916   2.3380 293.6036 0001331 212.6451 266.0877  1.00271716 13377
LUCAS (JDRS-1)          
1 47202U 20089A   24174.11104462 -.00000217  00000+0  00000+0 0  9990
2 47202   0.0238  17.8331 0003033  61.8938 321.7747  1.00266123 13126
SXM-7                   
1 47240U 20096A   24173.40257552 -.00000186  00000+0  00000+0 0  9995
2 47240   0.0325 103.4443 0005274  25.1372 201.2464  1.00273765   174
CMS-01                  
1 47256U 20099A   24174.10956524 -.00000148  00000+0  00000+0 0  9996
2 47256   0.0853  95.2348 0004117 179.5366 118.4603  1.00272072 12921
TURKSAT 5A              
1 47306U 21001A   24174.09920955  .00000171  00000+0  00000+0 0  9998
2 47306   0.0242  72.7722 0000376   7.7767 256.8604  1.00272031 12715
TIANTONG-1 3            
1 47321U 21003A   24173.89451429 -.00000135  00000+0  00000+0 0  9990
2 47321   2.8655 312.4487 0003146 157.2638 204.4188  1.00272954 12684
TJS-6                   
1 47613U 21010A   24174.16021583  .00000060  00000+0  00000+0 0  9993
2 47613   0.3926  87.2582 0002327  54.0545   5.7122  1.00274530 12532
SBIRS GEO-5 (USA 315)   
1 48618U 21042A   24173.74283187  .00000138  00000+0  00000+0 0  9993
2 48618   6.1400 325.6813 0001961 125.2821 107.7935  1.00272127 11484
FENGYUN 4B              
1 48808U 21047A   24174.15257920 -.00000314  00000+0  00000+0 0  9998
2 48808   0.0344 359.5900 0005346 119.4077 311.5847  1.00271479 11292
SXM-8                   
1 48838U 21049A   24173.36047483 -.00000185  00000+0  00000+0 0  9992
2 48838   0.0153  20.5085 0005057  19.1618 274.9871  1.00269703 11328
TIANLIAN 1-05           
1 49011U 21063A   24174.09633779  .00000126  00000+0  00000+0 0  9996
2 49011   0.2926 284.4936 0002666 181.5515 216.1931  1.00272399 10803
STAR ONE D2             
1 49055U 21069A   24173.28868734 -.00000245  00000+0  00000+0 0  9994
2 49055   0.0171  23.9683 0001927  86.4572 193.3745  1.00269972 10623
EUTELSAT QUANTUM        
1 49056U 21069B   24173.88781355  .00000144  00000+0  00000+0 0  9991
2 49056   0.0137 334.4559 0002595 115.5688 187.8479  1.00269959 10652
CHINASAT 2E (ZX 2E)     
1 49062U 21071A   24174.11252400 -.00000274  00000+0  00000+0 0  9997
2 49062   0.0524 244.3948 0001792 242.5843 282.3564  1.00273349 10768
TJS-7                   
1 49115U 21077A   24173.87688395 -.00000106  00000+0  00000+0 0  9994
2 49115   0.3230  86.0248 0001532  23.5935  17.0984  1.00273486  2301
CHINASAT 9B             
1 49125U 21080A   24174.11322019 -.00000296  00000+0  00000+0 0  9995
2 49125   0.0247 284.9286 0002228 193.8121 294.2078  1.00274155 10361
SHIJIAN-21 (SJ-21)      
1 49330U 21094A   24173.89648726 -.00000275  00000+0  00000+0 0  9995
2 49330   9.8192  45.2303 0080503  33.3507 294.4671  1.00312969  9984
SES-17                  
1 49332U 21095A   24173.79339826 -.00000254  00000+0  00000+0 0  9992
2 49332   0.0115  21.2653 0001278  68.4925  39.2316  1.00268641 10576
SYRACUSE 4A             
1 49333U 21095B   24173.52953307  .00000154  00000+0  00000+0 0  9998
2 49333   0.0177   7.5535 0001501  79.6516  59.1343  1.00268145 10682
QZS-1R                  
1 49336U 21096A   24173.72999821 -.00000253  00000+0  00000+0 0  9996
2 49336  35.9531  90.4615 0756800 271.5936 305.0774  1.00257568  9736
CHINASAT 1D (ZX 1D)     
1 49505U 21114A   24174.19040198 -.00000319  00000+0  00000+0 0  9994
2 49505   0.0333 106.7124 0001364  84.9457 277.9091  1.00272906  9557
STPSAT-6                
1 49817U 21118A   24173.88243825 -.00000028  00000+0  00000+0 0  9998
2 49817   0.0253 284.7397 0000646 149.1840  42.6654  1.00271376  9298
LDPE-1                  
1 49818U 21118B   24174.13776056  .00000128  00000+0  00000+0 0  9995
2 49818   2.2882  88.0690 0005436  47.4479  49.9847  0.99875632  9355
EXPRESS AMU-7           
1 50001U 21123A   24173.84597253 -.00000225  00000+0  00000+0 0  9993
2 50001   0.0226 334.0949 0000348 319.3126  66.5888  1.00270154  9268
EXPRESS AMU-3           
1 50002U 21123B   24172.96517010 -.00000301  00000+0  00000+0 0  9994
2 50002   0.0199 354.0686 0000265  21.9479 343.9843  1.00270966  9245
TIANLIAN 2-02           
1 50005U 21124A   24174.16021583  .00000004  00000+0  00000+0 0  9996
2 50005   0.6597 273.8222 0001332 160.2996  65.3922  1.00271781  9336
TURKSAT 5B              
1 50212U 21126A   24174.02985696  .00000163  00000+0  00000+0 0  9993
2 50212   0.0640 351.2824 0003242  14.8522 317.3332  1.00272061  9022
INMARSAT 6-F1           
1 50319U 21128A   24173.99572855 -.00000154  00000+0  00000+0 0  9998
2 50319   0.0115 323.0472 0000346 162.8855 226.9590  1.00271429  8979
SHIYAN 12 01 (SY-12 01) 
1 50321U 21129A   24173.90373872 -.00000313  00000+0  00000+0 0  9998
2 50321   1.7963  90.8498 0001752  55.8248 216.7998  1.00451829  9229
SHIYAN 12 02 (SY-12 02) 
1 50322U 21129B   24173.90399977 -.00000334  00000+0  00000+0 0  9996
2 50322   1.7952  90.8583 0000646 167.6626 106.6152  1.00094490  9222
TJS-9                   
1 50574U 21135A   24173.86783882 -.00000281  00000+0  00000+0 0  9990
2 50574   0.0765  79.7074 0003524 343.6068 296.8907  1.00271882  9165
USA 324                 
1 51280U 22006A   24155.42803545 -.00000007  00000+0  00000+0 0  9990
2 51280   1.7041  88.6513 0004068 353.4952 139.0207  1.00134112  8677
USA 325                 
1 51281U 22006B   24155.07299656 -.00000162  00000+0  00000+0 0  9996
2 51281   0.2954  85.2607 0000310 194.6194  78.9639  1.00381384  8643
GOES 18                 
1 51850U 22021A   24173.92270963  .00000114  00000+0  00000+0 0  9995
2 51850   0.0147 110.8283 0000548 332.8579  22.0844  1.00272373  8531
CHINASAT 6D (ZX 6D)     
1 52255U 22038A   24173.90101385 -.00000336  00000+0  00000+0 0  9999
2 52255   0.0494 267.7620 0000158 189.0247 263.2215  1.00270523  8170
NILESAT 301             
1 52817U 22061A   24173.87694789 -.00000040  00000+0  00000+0 0  9992
2 52817   0.0485  17.0708 0004585  50.1411 152.0355  1.00271499  7460
CMS-02 (GSAT 24)        
1 52903U 22067A   24174.12479868 -.00000148  00000+0  00000+0 0  9991
2 52903   0.0878 267.7794 0008863 181.6759 309.2877  1.00270511  7334
MEASAT 3D               
1 52904U 22067B   24174.11121868 -.00000224  00000+0  00000+0 0  9990
2 52904   0.0268 342.6943 0000846  78.8014 340.8389  1.00270803  7378
SES-22                  
1 52933U 22071A   24173.80327356  .00000123  00000+0  00000+0 0  9999
2 52933   0.0287 291.9882 0000383 152.6640 336.0124  1.00272921   236
WFOV (USA 332)          
1 52940U 22073A   24173.90208528 -.00000346  00000+0  00000+0 0  9997
2 52940   1.8375  88.1435 0001485 309.0011 317.4635  1.00267975  7099
TIANLIAN 2-03           
1 53100U 22078A   24172.99894713  .00000094  00000+0  00000+0 0  9995
2 53100   1.2166 278.6679 0002307 164.1213 197.0936  1.00272301  7279
SBIRS GEO-6 (USA 336)   
1 53355U 22092A   24173.86684797 -.00000270  00000+0  00000+0 0  9996
2 53355   4.5644 311.1805 0003067 124.5904 285.8497  1.00271198  6969
EUTELSAT KONNECT VHTS   
1 53765U 22110A   24173.50994816  .00000036  00000+0  00000+0 0  9998
2 53765   0.0546  95.4024 0002871 335.0479  25.9957  1.00273252  6528
CHINASAT 1E (ZX 1E)     
1 53813U 22112A   24174.21299444 -.00000133  00000+0  00000+0 0  9997
2 53813   0.0320 249.6386 0001524 184.9372 354.3979  1.00273101  6574
SES-20                  
1 53960U 22123A   24174.07258506 -.00000083  00000+0  00000+0 0  9994
2 53960   0.0212  44.9977 0002427  54.6195  94.1485  1.00268250  6264
SES-21                  
1 53961U 22123B   24173.88799556  .00000087  00000+0  00000+0 0  9991
2 53961   0.0359  18.7738 0000925  65.6437  14.8865  1.00267842  6282
GALAXY 33 (G-33)        
1 54026U 22128A   24173.88799556  .00000097  00000+0  00000+0 0  9990
2 54026   0.0135  52.4415 0002053  34.0761  10.7174  1.00270381  6480
